GLOBALSTAR M067 [+]     
1 32263U 07048A   24061.90892890 -.00000014  00000+0  61773-3 0  9995
2 32263  51.9757 337.8212 0001502  59.7035  16.6922 12.40639306751109
GLOBALSTAR M070 [+]     
1 32264U 07048B   24061.59810057 -.00000075  00000+0  16324-3 0  9995
2 32264  51.9742 128.1644 0000917 130.0451  17.6403 12.62287415753985
GLOBALSTAR M066 [+]     
1 32265U 07048C   24061.56199439 -.00000073  00000+0  17107-3 0  9995
2 32265  51.9705 350.2790 0000803  13.0638 157.5592 12.62256102756240
GLOBALSTAR M068 [-]     
1 32266U 07048D   24061.41050042 -.00000092  00000+0  68264-4 0  9998
2 32266  51.9893 303.3887 0001033 127.2416  44.1923 12.62780577757825
GLOBALSTAR M079 [+]     
1 37188U 10054A   24061.62966133 -.00000076  00000+0  15474-3 0  9993
2 37188  52.0028 138.3275 0000506  99.0999  66.0873 12.62267105616770
GLOBALSTAR M074 [+]     
1 37189U 10054B   24061.46433267 -.00000077  00000+0  14792-3 0  9996
2 37189  52.0008 138.2274 0000695 118.7104 254.3919 12.62265806617368
GLOBALSTAR M076 [+]     
1 37190U 10054C   24061.49088921 -.00000077  00000+0  14921-3 0  9998
2 37190  52.0021 138.2759 0000963  85.0496 287.9884 12.62275130617084
GLOBALSTAR M077 [+]     
1 37191U 10054D   24061.39854128 -.00000105  00000+0 -62057-5 0  9996
2 37191  52.0065  95.2764 0000525 118.3919 254.7620 12.62270078617441
